STARLINK-36369          
1 67723U 26026C   26058.83335648  .00034113  00000+0  17810-3 0  9993
2 67723  97.2858 112.9941 0001196  99.9209  33.4228 15.80820804  3728
STARLINK-36752          
1 67724U 26026D   26058.83335648  .00027860  00000+0  14565-3 0  9999
2 67724  97.2858 112.9980 0001377  88.0329  52.9508 15.80827812  3728
STARLINK-36754          
1 67725U 26026E   26058.83335648  .00101502  00000+0  52462-3 0  9994
2 67725  97.2860 112.9999 0001386  93.8997  53.1009 15.80811193  3721
STARLINK-36755          
1 67726U 26026F   26058.83335648 -.00034913  00000+0 -18196-3 0  9994
2 67726  97.2859 113.0006 0001552  91.3236  63.3258 15.80851292  3728
STARLINK-36741          
1 67727U 26026G   26058.83335648 -.00001973  00000+0 -95447-5 0  9991
2 67727  97.2861 113.0038 0001340  75.0260  84.5663 15.80852584  3728
STARLINK-36757          
1 67728U 26026H   26058.83335648  .00021865  00000+0  11450-3 0  9992
2 67728  97.2861 113.0058 0001308  83.7600  82.7472 15.80836307  3722
STARLINK-36751          
1 67729U 26026J   26058.83335648  .00009213  00000+0  48754-4 0  9994
2 67729  97.2860 113.0117 0001711 102.1173  78.4896 15.80829591  3726
STARLINK-36747          
1 67730U 26026K   26058.83335648  .00003794  00000+0  20521-4 0  9996
2 67730  97.2861 113.0087 0001233 103.0112  69.0291 15.80838313  3724
STARLINK-36315          
1 67731U 26026L   26058.83335648  .00004698  00000+0  25228-4 0  9990
2 67731  97.2861 113.0145 0001264  89.8551  96.2234 15.80841048  3720
STARLINK-36260          
1 67732U 26026M   26058.83335648  .00023497  00000+0  12289-3 0  9991
2 67732  97.2861 113.0172 0001549 114.6087  78.2035 15.80849990  3721
STARLINK-36746          
1 67733U 26026N   26058.83335648 -.02001058  00000+0 -18789-1 0  9994
2 67733  97.2813 112.9965 0001902  70.0104  78.6249 15.70168142  3728
STARLINK-36749          
1 67734U 26026P   26058.83335648 -.00052719  00000+0 -27564-3 0  9996
2 67734  97.2863 113.0203 0001642 104.1521 100.3663 15.80855090  3723
