CCSDS_OMM_VERS = 2.0
CREATION_DATE  = 
ORIGINATOR     = 

OBJECT_NAME    = STARLINK-36369
OBJECT_ID      = 2026-026C
CENTER_NAME    = EARTH
REF_FRAME      = TEME
TIME_SYSTEM    = UTC
MEAN_ELEMENT_THEORY = SGP/SGP4

EPOCH          = 2026-02-27T20:00:01.999872
MEAN_MOTION    = 15.80820804
ECCENTRICITY   = .00011967
INCLINATION    = 97.2858
RA_OF_ASC_NODE = 112.9941
ARG_OF_PERICENTER = 99.9209
MEAN_ANOMALY   = 33.4228

EPHEMERIS_TYPE = 0
CLASSIFICATION_TYPE = U
NORAD_CAT_ID   = 67723
ELEMENT_SET_NO = 999
REV_AT_EPOCH   = 372
BSTAR          = .17809819E-3
MEAN_MOTION_DOT = .34113E-3
MEAN_MOTION_DDOT = 0

CCSDS_OMM_VERS = 2.0
CREATION_DATE  = 
ORIGINATOR     = 

OBJECT_NAME    = STARLINK-36752
OBJECT_ID      = 2026-026D
CENTER_NAME    = EARTH
REF_FRAME      = TEME
TIME_SYSTEM    = UTC
MEAN_ELEMENT_THEORY = SGP/SGP4

EPOCH          = 2026-02-27T20:00:01.999872
MEAN_MOTION    = 15.80827812
ECCENTRICITY   = .00013772
INCLINATION    = 97.2858
RA_OF_ASC_NODE = 112.9980
ARG_OF_PERICENTER = 88.0329
MEAN_ANOMALY   = 52.9508

EPHEMERIS_TYPE = 0
CLASSIFICATION_TYPE = U
NORAD_CAT_ID   = 67724
ELEMENT_SET_NO = 999
REV_AT_EPOCH   = 372
BSTAR          = .14564641E-3
MEAN_MOTION_DOT = .2786E-3
MEAN_MOTION_DDOT = 0

CCSDS_OMM_VERS = 2.0
CREATION_DATE  = 
ORIGINATOR     = 

OBJECT_NAME    = STARLINK-36754
OBJECT_ID      = 2026-026E
CENTER_NAME    = EARTH
REF_FRAME      = TEME
TIME_SYSTEM    = UTC
MEAN_ELEMENT_THEORY = SGP/SGP4

EPOCH          = 2026-02-27T20:00:01.999872
MEAN_MOTION    = 15.80811193
ECCENTRICITY   = .00013863
INCLINATION    = 97.2860
RA_OF_ASC_NODE = 112.9999
ARG_OF_PERICENTER = 93.8997
MEAN_ANOMALY   = 53.1009

EPHEMERIS_TYPE = 0
CLASSIFICATION_TYPE = U
NORAD_CAT_ID   = 67725
ELEMENT_SET_NO = 999
REV_AT_EPOCH   = 372
BSTAR          = .52462062E-3
MEAN_MOTION_DOT = .101502E-2
MEAN_MOTION_DDOT = 0

CCSDS_OMM_VERS = 2.0
CREATION_DATE  = 
ORIGINATOR     = 

OBJECT_NAME    = STARLINK-36755
OBJECT_ID      = 2026-026F
CENTER_NAME    = EARTH
REF_FRAME      = TEME
TIME_SYSTEM    = UTC
MEAN_ELEMENT_THEORY = SGP/SGP4

EPOCH          = 2026-02-27T20:00:01.999872
MEAN_MOTION    = 15.80851292
ECCENTRICITY   = .00015525
INCLINATION    = 97.2859
RA_OF_ASC_NODE = 113.0006
ARG_OF_PERICENTER = 91.3236
MEAN_ANOMALY   = 63.3258

EPHEMERIS_TYPE = 0
CLASSIFICATION_TYPE = U
NORAD_CAT_ID   = 67726
ELEMENT_SET_NO = 999
REV_AT_EPOCH   = 372
BSTAR          = -.18195581E-3
MEAN_MOTION_DOT = -.34913E-3
MEAN_MOTION_DDOT = 0

CCSDS_OMM_VERS = 2.0
CREATION_DATE  = 
ORIGINATOR     = 

OBJECT_NAME    = STARLINK-36741
OBJECT_ID      = 2026-026G
CENTER_NAME    = EARTH
REF_FRAME      = TEME
TIME_SYSTEM    = UTC
MEAN_ELEMENT_THEORY = SGP/SGP4

EPOCH          = 2026-02-27T20:00:01.999872
MEAN_MOTION    = 15.80852584
ECCENTRICITY   = .00013402
INCLINATION    = 97.2861
RA_OF_ASC_NODE = 113.0038
ARG_OF_PERICENTER = 75.0260
MEAN_ANOMALY   = 84.5663

EPHEMERIS_TYPE = 0
CLASSIFICATION_TYPE = U
NORAD_CAT_ID   = 67727
ELEMENT_SET_NO = 999
REV_AT_EPOCH   = 372
BSTAR          = -.9544712E-5
MEAN_MOTION_DOT = -.1973E-4
MEAN_MOTION_DDOT = 0

CCSDS_OMM_VERS = 2.0
CREATION_DATE  = 
ORIGINATOR     = 

OBJECT_NAME    = STARLINK-36757
OBJECT_ID      = 2026-026H
CENTER_NAME    = EARTH
REF_FRAME      = TEME
TIME_SYSTEM    = UTC
MEAN_ELEMENT_THEORY = SGP/SGP4

EPOCH          = 2026-02-27T20:00:01.999872
MEAN_MOTION    = 15.80836307
ECCENTRICITY   = .00013082
INCLINATION    = 97.2861
RA_OF_ASC_NODE = 113.0058
ARG_OF_PERICENTER = 83.7600
MEAN_ANOMALY   = 82.7472

EPHEMERIS_TYPE = 0
CLASSIFICATION_TYPE = U
NORAD_CAT_ID   = 67728
ELEMENT_SET_NO = 999
REV_AT_EPOCH   = 372
BSTAR          = .11449526E-3
MEAN_MOTION_DOT = .21865E-3
MEAN_MOTION_DDOT = 0

CCSDS_OMM_VERS = 2.0
CREATION_DATE  = 
ORIGINATOR     = 

OBJECT_NAME    = STARLINK-36751
OBJECT_ID      = 2026-026J
CENTER_NAME    = EARTH
REF_FRAME      = TEME
TIME_SYSTEM    = UTC
MEAN_ELEMENT_THEORY = SGP/SGP4

EPOCH          = 2026-02-27T20:00:01.999872
MEAN_MOTION    = 15.80829591
ECCENTRICITY   = .00017118
INCLINATION    = 97.2860
RA_OF_ASC_NODE = 113.0117
ARG_OF_PERICENTER = 102.1173
MEAN_ANOMALY   = 78.4896

EPHEMERIS_TYPE = 0
CLASSIFICATION_TYPE = U
NORAD_CAT_ID   = 67729
ELEMENT_SET_NO = 999
REV_AT_EPOCH   = 372
BSTAR          = .48754341E-4
MEAN_MOTION_DOT = .9213E-4
MEAN_MOTION_DDOT = 0

CCSDS_OMM_VERS = 2.0
CREATION_DATE  = 
ORIGINATOR     = 

OBJECT_NAME    = STARLINK-36747
OBJECT_ID      = 2026-026K
CENTER_NAME    = EARTH
REF_FRAME      = TEME
TIME_SYSTEM    = UTC
MEAN_ELEMENT_THEORY = SGP/SGP4

EPOCH          = 2026-02-27T20:00:01.999872
MEAN_MOTION    = 15.80838313
ECCENTRICITY   = .00012335
INCLINATION    = 97.2861
RA_OF_ASC_NODE = 113.0087
ARG_OF_PERICENTER = 103.0112
MEAN_ANOMALY   = 69.0291

EPHEMERIS_TYPE = 0
CLASSIFICATION_TYPE = U
NORAD_CAT_ID   = 67730
ELEMENT_SET_NO = 999
REV_AT_EPOCH   = 372
BSTAR          = .20520985E-4
MEAN_MOTION_DOT = .3794E-4
MEAN_MOTION_DDOT = 0

CCSDS_OMM_VERS = 2.0
CREATION_DATE  = 
ORIGINATOR     = 

OBJECT_NAME    = STARLINK-36315
OBJECT_ID      = 2026-026L
CENTER_NAME    = EARTH
REF_FRAME      = TEME
TIME_SYSTEM    = UTC
MEAN_ELEMENT_THEORY = SGP/SGP4

EPOCH          = 2026-02-27T20:00:01.999872
MEAN_MOTION    = 15.80841048
ECCENTRICITY   = .00012641
INCLINATION    = 97.2861
RA_OF_ASC_NODE = 113.0145
ARG_OF_PERICENTER = 89.8551
MEAN_ANOMALY   = 96.2234

EPHEMERIS_TYPE = 0
CLASSIFICATION_TYPE = U
NORAD_CAT_ID   = 67731
ELEMENT_SET_NO = 999
REV_AT_EPOCH   = 372
BSTAR          = .25227846E-4
MEAN_MOTION_DOT = .4698E-4
MEAN_MOTION_DDOT = 0

CCSDS_OMM_VERS = 2.0
CREATION_DATE  = 
ORIGINATOR     = 

OBJECT_NAME    = STARLINK-36260
OBJECT_ID      = 2026-026M
CENTER_NAME    = EARTH
REF_FRAME      = TEME
TIME_SYSTEM    = UTC
MEAN_ELEMENT_THEORY = SGP/SGP4

EPOCH          = 2026-02-27T20:00:01.999872
MEAN_MOTION    = 15.80849990
ECCENTRICITY   = .00015496
INCLINATION    = 97.2861
RA_OF_ASC_NODE = 113.0172
ARG_OF_PERICENTER = 114.6087
MEAN_ANOMALY   = 78.2035

EPHEMERIS_TYPE = 0
CLASSIFICATION_TYPE = U
NORAD_CAT_ID   = 67732
ELEMENT_SET_NO = 999
REV_AT_EPOCH   = 372
BSTAR          = .12288776E-3
MEAN_MOTION_DOT = .23497E-3
MEAN_MOTION_DDOT = 0

CCSDS_OMM_VERS = 2.0
CREATION_DATE  = 
ORIGINATOR     = 

OBJECT_NAME    = STARLINK-36746
OBJECT_ID      = 2026-026N
CENTER_NAME    = EARTH
REF_FRAME      = TEME
TIME_SYSTEM    = UTC
MEAN_ELEMENT_THEORY = SGP/SGP4

EPOCH          = 2026-02-27T20:00:01.999872
MEAN_MOTION    = 15.70168142
ECCENTRICITY   = .00019027
INCLINATION    = 97.2813
RA_OF_ASC_NODE = 112.9965
ARG_OF_PERICENTER = 70.0104
MEAN_ANOMALY   = 78.6249

EPHEMERIS_TYPE = 0
CLASSIFICATION_TYPE = U
NORAD_CAT_ID   = 67733
ELEMENT_SET_NO = 999
REV_AT_EPOCH   = 372
BSTAR          = -.18788997E-1
MEAN_MOTION_DOT = -.2001058E-1
MEAN_MOTION_DDOT = 0

CCSDS_OMM_VERS = 2.0
CREATION_DATE  = 
ORIGINATOR     = 

OBJECT_NAME    = STARLINK-36749
OBJECT_ID      = 2026-026P
CENTER_NAME    = EARTH
REF_FRAME      = TEME
TIME_SYSTEM    = UTC
MEAN_ELEMENT_THEORY = SGP/SGP4

EPOCH          = 2026-02-27T20:00:01.999872
MEAN_MOTION    = 15.80855090
ECCENTRICITY   = .00016426
INCLINATION    = 97.2863
RA_OF_ASC_NODE = 113.0203
ARG_OF_PERICENTER = 104.1521
MEAN_ANOMALY   = 100.3663

EPHEMERIS_TYPE = 0
CLASSIFICATION_TYPE = U
NORAD_CAT_ID   = 67734
ELEMENT_SET_NO = 999
REV_AT_EPOCH   = 372
BSTAR          = -.27564354E-3
MEAN_MOTION_DOT = -.52719E-3
MEAN_MOTION_DDOT = 0

